ONEWEB-0275             
1 48993U 21060AC  25159.40039641  .00000122  00000+0  28576-3 0  9996
2 48993  87.9035 303.2793 0001768 102.8405 257.2924 13.16595229190370
ONEWEB-0276             
1 48994U 21060AD  25159.66161781 -.00000054  00000+0 -17574-3 0  9998
2 48994  87.9037 303.2241 0002035 104.2761 255.8596 13.16593105190426
ONEWEB-0277             
1 48995U 21060AE  25159.67428270  .00000030  00000+0  44560-4 0  9997
2 48995  87.9033 303.2575 0001867 112.4923 247.6406 13.16596185190415
ONEWEB-0278             
1 48996U 21060AF  25159.66479039 -.00000040  00000+0 -13853-3 0  9999
2 48996  87.9035 303.2203 0002066  95.1449 264.9918 13.16595174190549
ONEWEB-0279             
1 48997U 21060AG  25159.67269293  .00000018  00000+0  12195-4 0  9992
2 48997  87.9034 303.2147 0001702 109.7663 250.3652 13.16595793190475
ONEWEB-0280             
1 48998U 21060AH  25159.45974836  .00000084  00000+0  18573-3 0  9993
2 48998  87.9036 303.2637 0002163 104.6884 255.4487 13.16593032190389
ONEWEB-0281             
1 48999U 21060AJ  25159.69330291  .00000060  00000+0  12282-3 0  9996
2 48999  87.9036 303.2151 0001678  97.3226 262.8096 13.16594216190483
ONEWEB-0282             
1 49000U 21060AK  25159.64735939  .00000022  00000+0  24202-4 0  9997
2 49000  87.9030 303.2382 0001958 103.5353 256.5996 13.16592668190454
