<?xml version="1.0" encoding="UTF-8"?>
<ndm xmlns:xsi="http://www.w3.org/2001/XMLSchema-instance" xsi:noNamespaceSchemaLocation="https://sanaregistry.org/r/ndmxml_unqualified/ndmxml-2.0.0-master-2.0.xsd">
<omm id="CCSDS_OMM_VERS" version="2.0">
<header><CREATION_DATE/><ORIGINATOR/></header><body><segment><metadata><OBJECT_NAME>ONEWEB-0275</OBJECT_NAME><OBJECT_ID>2021-060AC</OBJECT_ID><CENTER_NAME>EARTH</CENTER_NAME><REF_FRAME>TEME</REF_FRAME><TIME_SYSTEM>UTC</TIME_SYSTEM><MEAN_ELEMENT_THEORY>SGP4</MEAN_ELEMENT_THEORY></metadata><data><meanElements><EPOCH>2025-06-08T09:36:34.249824</EPOCH><MEAN_MOTION>13.16595229</MEAN_MOTION><ECCENTRICITY>.0001768</ECCENTRICITY><INCLINATION>87.9035</INCLINATION><RA_OF_ASC_NODE>303.2793</RA_OF_ASC_NODE><ARG_OF_PERICENTER>102.8405</ARG_OF_PERICENTER><MEAN_ANOMALY>257.2924</MEAN_ANOMALY></meanElements><tleParameters><EPHEMERIS_TYPE>0</EPHEMERIS_TYPE><CLASSIFICATION_TYPE>U</CLASSIFICATION_TYPE><NORAD_CAT_ID>48993</NORAD_CAT_ID><ELEMENT_SET_NO>999</ELEMENT_SET_NO><REV_AT_EPOCH>19037</REV_AT_EPOCH><BSTAR>.28576E-3</BSTAR><MEAN_MOTION_DOT>.122E-5</MEAN_MOTION_DOT><MEAN_MOTION_DDOT>0</MEAN_MOTION_DDOT></tleParameters></data></segment></body></omm>
<omm id="CCSDS_OMM_VERS" version="2.0">
<header><CREATION_DATE/><ORIGINATOR/></header><body><segment><metadata><OBJECT_NAME>ONEWEB-0276</OBJECT_NAME><OBJECT_ID>2021-060AD</OBJECT_ID><CENTER_NAME>EARTH</CENTER_NAME><REF_FRAME>TEME</REF_FRAME><TIME_SYSTEM>UTC</TIME_SYSTEM><MEAN_ELEMENT_THEORY>SGP4</MEAN_ELEMENT_THEORY></metadata><data><meanElements><EPOCH>2025-06-08T15:52:43.778784</EPOCH><MEAN_MOTION>13.16593105</MEAN_MOTION><ECCENTRICITY>.0002035</ECCENTRICITY><INCLINATION>87.9037</INCLINATION><RA_OF_ASC_NODE>303.2241</RA_OF_ASC_NODE><ARG_OF_PERICENTER>104.2761</ARG_OF_PERICENTER><MEAN_ANOMALY>255.8596</MEAN_ANOMALY></meanElements><tleParameters><EPHEMERIS_TYPE>0</EPHEMERIS_TYPE><CLASSIFICATION_TYPE>U</CLASSIFICATION_TYPE><NORAD_CAT_ID>48994</NORAD_CAT_ID><ELEMENT_SET_NO>999</ELEMENT_SET_NO><REV_AT_EPOCH>19042</REV_AT_EPOCH><BSTAR>-.17574E-3</BSTAR><MEAN_MOTION_DOT>-.54E-6</MEAN_MOTION_DOT><MEAN_MOTION_DDOT>0</MEAN_MOTION_DDOT></tleParameters></data></segment></body></omm>
<omm id="CCSDS_OMM_VERS" version="2.0">
<header><CREATION_DATE/><ORIGINATOR/></header><body><segment><metadata><OBJECT_NAME>ONEWEB-0277</OBJECT_NAME><OBJECT_ID>2021-060AE</OBJECT_ID><CENTER_NAME>EARTH</CENTER_NAME><REF_FRAME>TEME</REF_FRAME><TIME_SYSTEM>UTC</TIME_SYSTEM><MEAN_ELEMENT_THEORY>SGP4</MEAN_ELEMENT_THEORY></metadata><data><meanElements><EPOCH>2025-06-08T16:10:58.025280</EPOCH><MEAN_MOTION>13.16596185</MEAN_MOTION><ECCENTRICITY>.0001867</ECCENTRICITY><INCLINATION>87.9033</INCLINATION><RA_OF_ASC_NODE>303.2575</RA_OF_ASC_NODE><ARG_OF_PERICENTER>112.4923</ARG_OF_PERICENTER><MEAN_ANOMALY>247.6406</MEAN_ANOMALY></meanElements><tleParameters><EPHEMERIS_TYPE>0</EPHEMERIS_TYPE><CLASSIFICATION_TYPE>U</CLASSIFICATION_TYPE><NORAD_CAT_ID>48995</NORAD_CAT_ID><ELEMENT_SET_NO>999</ELEMENT_SET_NO><REV_AT_EPOCH>19041</REV_AT_EPOCH><BSTAR>.4456E-4</BSTAR><MEAN_MOTION_DOT>.3E-6</MEAN_MOTION_DOT><MEAN_MOTION_DDOT>0</MEAN_MOTION_DDOT></tleParameters></data></segment></body></omm>
<omm id="CCSDS_OMM_VERS" version="2.0">
<header><CREATION_DATE/><ORIGINATOR/></header><body><segment><metadata><OBJECT_NAME>ONEWEB-0278</OBJECT_NAME><OBJECT_ID>2021-060AF</OBJECT_ID><CENTER_NAME>EARTH</CENTER_NAME><REF_FRAME>TEME</REF_FRAME><TIME_SYSTEM>UTC</TIME_SYSTEM><MEAN_ELEMENT_THEORY>SGP4</MEAN_ELEMENT_THEORY></metadata><data><meanElements><EPOCH>2025-06-08T15:57:17.889696</EPOCH><MEAN_MOTION>13.16595174</MEAN_MOTION><ECCENTRICITY>.0002066</ECCENTRICITY><INCLINATION>87.9035</INCLINATION><RA_OF_ASC_NODE>303.2203</RA_OF_ASC_NODE><ARG_OF_PERICENTER>95.1449</ARG_OF_PERICENTER><MEAN_ANOMALY>264.9918</MEAN_ANOMALY></meanElements><tleParameters><EPHEMERIS_TYPE>0</EPHEMERIS_TYPE><CLASSIFICATION_TYPE>U</CLASSIFICATION_TYPE><NORAD_CAT_ID>48996</NORAD_CAT_ID><ELEMENT_SET_NO>999</ELEMENT_SET_NO><REV_AT_EPOCH>19054</REV_AT_EPOCH><BSTAR>-.13853E-3</BSTAR><MEAN_MOTION_DOT>-.4E-6</MEAN_MOTION_DOT><MEAN_MOTION_DDOT>0</MEAN_MOTION_DDOT></tleParameters></data></segment></body></omm>
<omm id="CCSDS_OMM_VERS" version="2.0">
<header><CREATION_DATE/><ORIGINATOR/></header><body><segment><metadata><OBJECT_NAME>ONEWEB-0279</OBJECT_NAME><OBJECT_ID>2021-060AG</OBJECT_ID><CENTER_NAME>EARTH</CENTER_NAME><REF_FRAME>TEME</REF_FRAME><TIME_SYSTEM>UTC</TIME_SYSTEM><MEAN_ELEMENT_THEORY>SGP4</MEAN_ELEMENT_THEORY></metadata><data><meanElements><EPOCH>2025-06-08T16:08:40.669152</EPOCH><MEAN_MOTION>13.16595793</MEAN_MOTION><ECCENTRICITY>.0001702</ECCENTRICITY><INCLINATION>87.9034</INCLINATION><RA_OF_ASC_NODE>303.2147</RA_OF_ASC_NODE><ARG_OF_PERICENTER>109.7663</ARG_OF_PERICENTER><MEAN_ANOMALY>250.3652</MEAN_ANOMALY></meanElements><tleParameters><EPHEMERIS_TYPE>0</EPHEMERIS_TYPE><CLASSIFICATION_TYPE>U</CLASSIFICATION_TYPE><NORAD_CAT_ID>48997</NORAD_CAT_ID><ELEMENT_SET_NO>999</ELEMENT_SET_NO><REV_AT_EPOCH>19047</REV_AT_EPOCH><BSTAR>.12195E-4</BSTAR><MEAN_MOTION_DOT>.18E-6</MEAN_MOTION_DOT><MEAN_MOTION_DDOT>0</MEAN_MOTION_DDOT></tleParameters></data></segment></body></omm>
<omm id="CCSDS_OMM_VERS" version="2.0">
<header><CREATION_DATE/><ORIGINATOR/></header><body><segment><metadata><OBJECT_NAME>ONEWEB-0280</OBJECT_NAME><OBJECT_ID>2021-060AH</OBJECT_ID><CENTER_NAME>EARTH</CENTER_NAME><REF_FRAME>TEME</REF_FRAME><TIME_SYSTEM>UTC</TIME_SYSTEM><MEAN_ELEMENT_THEORY>SGP4</MEAN_ELEMENT_THEORY></metadata><data><meanElements><EPOCH>2025-06-08T11:02:02.258304</EPOCH><MEAN_MOTION>13.16593032</MEAN_MOTION><ECCENTRICITY>.0002163</ECCENTRICITY><INCLINATION>87.9036</INCLINATION><RA_OF_ASC_NODE>303.2637</RA_OF_ASC_NODE><ARG_OF_PERICENTER>104.6884</ARG_OF_PERICENTER><MEAN_ANOMALY>255.4487</MEAN_ANOMALY></meanElements><tleParameters><EPHEMERIS_TYPE>0</EPHEMERIS_TYPE><CLASSIFICATION_TYPE>U</CLASSIFICATION_TYPE><NORAD_CAT_ID>48998</NORAD_CAT_ID><ELEMENT_SET_NO>999</ELEMENT_SET_NO><REV_AT_EPOCH>19038</REV_AT_EPOCH><BSTAR>.18573E-3</BSTAR><MEAN_MOTION_DOT>.84E-6</MEAN_MOTION_DOT><MEAN_MOTION_DDOT>0</MEAN_MOTION_DDOT></tleParameters></data></segment></body></omm>
<omm id="CCSDS_OMM_VERS" version="2.0">
<header><CREATION_DATE/><ORIGINATOR/></header><body><segment><metadata><OBJECT_NAME>ONEWEB-0281</OBJECT_NAME><OBJECT_ID>2021-060AJ</OBJECT_ID><CENTER_NAME>EARTH</CENTER_NAME><REF_FRAME>TEME</REF_FRAME><TIME_SYSTEM>UTC</TIME_SYSTEM><MEAN_ELEMENT_THEORY>SGP4</MEAN_ELEMENT_THEORY></metadata><data><meanElements><EPOCH>2025-06-08T16:38:21.371424</EPOCH><MEAN_MOTION>13.16594216</MEAN_MOTION><ECCENTRICITY>.0001678</ECCENTRICITY><INCLINATION>87.9036</INCLINATION><RA_OF_ASC_NODE>303.2151</RA_OF_ASC_NODE><ARG_OF_PERICENTER>97.3226</ARG_OF_PERICENTER><MEAN_ANOMALY>262.8096</MEAN_ANOMALY></meanElements><tleParameters><EPHEMERIS_TYPE>0</EPHEMERIS_TYPE><CLASSIFICATION_TYPE>U</CLASSIFICATION_TYPE><NORAD_CAT_ID>48999</NORAD_CAT_ID><ELEMENT_SET_NO>999</ELEMENT_SET_NO><REV_AT_EPOCH>19048</REV_AT_EPOCH><BSTAR>.12282E-3</BSTAR><MEAN_MOTION_DOT>.6E-6</MEAN_MOTION_DOT><MEAN_MOTION_DDOT>0</MEAN_MOTION_DDOT></tleParameters></data></segment></body></omm>
<omm id="CCSDS_OMM_VERS" version="2.0">
<header><CREATION_DATE/><ORIGINATOR/></header><body><segment><metadata><OBJECT_NAME>ONEWEB-0282</OBJECT_NAME><OBJECT_ID>2021-060AK</OBJECT_ID><CENTER_NAME>EARTH</CENTER_NAME><REF_FRAME>TEME</REF_FRAME><TIME_SYSTEM>UTC</TIME_SYSTEM><MEAN_ELEMENT_THEORY>SGP4</MEAN_ELEMENT_THEORY></metadata><data><meanElements><EPOCH>2025-06-08T15:32:11.851296</EPOCH><MEAN_MOTION>13.16592668</MEAN_MOTION><ECCENTRICITY>.0001958</ECCENTRICITY><INCLINATION>87.9030</INCLINATION><RA_OF_ASC_NODE>303.2382</RA_OF_ASC_NODE><ARG_OF_PERICENTER>103.5353</ARG_OF_PERICENTER><MEAN_ANOMALY>256.5996</MEAN_ANOMALY></meanElements><tleParameters><EPHEMERIS_TYPE>0</EPHEMERIS_TYPE><CLASSIFICATION_TYPE>U</CLASSIFICATION_TYPE><NORAD_CAT_ID>49000</NORAD_CAT_ID><ELEMENT_SET_NO>999</ELEMENT_SET_NO><REV_AT_EPOCH>19045</REV_AT_EPOCH><BSTAR>.24202E-4</BSTAR><MEAN_MOTION_DOT>.22E-6</MEAN_MOTION_DOT><MEAN_MOTION_DDOT>0</MEAN_MOTION_DDOT></tleParameters></data></segment></body></omm>

</ndm>
